{
  "type": "FeatureCollection",
  "features": [
    {
      "type": "Feature",
      "properties": {
        "norad_id": 57400,
        "name": "TIANMU-1 08",
        "group": "weather",
        "lat": 39.79239274331994,
        "lon": 32.34384233791722,
        "alt_km": 474.44414027410494,
        "timestamp": "2025-12-14T20:40:31.410590+00:00",
        "meta_object_name": "TIANMU-1 08",
        "meta_object_id": "2023-101B",
        "meta_epoch": "2025-12-14T07:55:38.820288",
        "meta_mean_motion": 15.28085672,
        "meta_eccentricity": 0.00074632,
        "meta_inclination": 97.287,
        "meta_ra_of_asc_node": 37.9429,
        "meta_arg_of_pericenter": 79.5538,
        "meta_mean_anomaly": 280.6542,
        "meta_ephemeris_type": 0,
        "meta_classification_type": "U",
        "meta_norad_cat_id": 57400,
        "meta_element_set_no": 999,
        "meta_rev_at_epoch": 13339,
        "meta_bstar": 0.00029505858,
        "meta_mean_motion_dot": 8.015e-05,
        "meta_mean_motion_ddot": 0,
        "tle_line1": "1 57400U 23101B   25348.33031042  .00008015  00000+0  29506-3 0  9999",
        "tle_line2": "2 57400  97.2870  37.9429 0007463  79.5538 280.6542 15.28085672133392"
      },
      "geometry": {
        "type": "Point",
        "coordinates": [
          32.34384233791722,
          39.79239274331994
        ]
      }
    },
    {
      "type": "Feature",
      "properties": {
        "norad_id": 57401,
        "name": "TIANMU-1 09",
        "group": "weather",
        "lat": 65.66251305334616,
        "lon": -125.60143831052171,
        "alt_km": 471.27690287148926,
        "timestamp": "2025-12-14T20:40:31.410600+00:00",
        "meta_object_name": "TIANMU-1 09",
        "meta_object_id": "2023-101C",
        "meta_epoch": "2025-12-14T09:10:52.031424",
        "meta_mean_motion": 15.2811691,
        "meta_eccentricity": 0.00067525,
        "meta_inclination": 97.2827,
        "meta_ra_of_asc_node": 37.5065,
        "meta_arg_of_pericenter": 79.3586,
        "meta_mean_anomaly": 280.8414,
        "meta_ephemeris_type": 0,
        "meta_classification_type": "U",
        "meta_norad_cat_id": 57401,
        "meta_element_set_no": 999,
        "meta_rev_at_epoch": 13340,
        "meta_bstar": 0.00030032021,
        "meta_mean_motion_dot": 8.166e-05,
        "meta_mean_motion_ddot": 0,
        "tle_line1": "1 57401U 23101C   25348.38254666  .00008166  00000+0  30032-3 0  9997",
        "tle_line2": "2 57401  97.2827  37.5065 0006752  79.3586 280.8414 15.28116910133400"
      },
      "geometry": {
        "type": "Point",
        "coordinates": [
          -125.60143831052171,
          65.66251305334616
        ]
      }
    },
    {
      "type": "Feature",
      "properties": {
        "norad_id": 57402,
        "name": "TIANMU-1 10",
        "group": "weather",
        "lat": -73.3801289760408,
        "lon": 64.22559137649273,
        "alt_km": 493.91764843076817,
        "timestamp": "2025-12-14T20:40:31.410610+00:00",
        "meta_object_name": "TIANMU-1 10",
        "meta_object_id": "2023-101D",
        "meta_epoch": "2025-12-14T08:25:51.206304",
        "meta_mean_motion": 15.28107952,
        "meta_eccentricity": 0.0008488,
        "meta_inclination": 97.2907,
        "meta_ra_of_asc_node": 38.3275,
        "meta_arg_of_pericenter": 78.8407,
        "meta_mean_anomaly": 281.3787,
        "meta_ephemeris_type": 0,
        "meta_classification_type": "U",
        "meta_norad_cat_id": 57402,
        "meta_element_set_no": 999,
        "meta_rev_at_epoch": 13339,
        "meta_bstar": 0.00032272028,
        "meta_mean_motion_dot": 8.782e-05,
        "meta_mean_motion_ddot": 0,
        "tle_line1": "1 57402U 23101D   25348.35128711  .00008782  00000+0  32272-3 0  9998",
        "tle_line2": "2 57402  97.2907  38.3275 0008488  78.8407 281.3787 15.28107952133399"
      },
      "geometry": {
        "type": "Point",
        "coordinates": [
          64.22559137649273,
          -73.3801289760408
        ]
      }
    },
    {
      "type": "Feature",
      "properties": {
        "norad_id": 57490,
        "name": "FENGYUN 3F",
        "group": "weather",
        "lat": 76.48919364926422,
        "lon": 17.48759913744185,
        "alt_km": 818.0189563897657,
        "timestamp": "2025-12-14T20:40:31.410622+00:00",
        "meta_object_name": "FENGYUN 3F",
        "meta_object_id": "2023-111A",
        "meta_epoch": "2025-12-14T08:27:47.621664",
        "meta_mean_motion": 14.19894058,
        "meta_eccentricity": 6.783e-05,
        "meta_inclination": 98.7082,
        "meta_ra_of_asc_node": 56.62,
        "meta_arg_of_pericenter": 105.1481,
        "meta_mean_anomaly": 254.9771,
        "meta_ephemeris_type": 0,
        "meta_classification_type": "U",
        "meta_norad_cat_id": 57490,
        "meta_element_set_no": 999,
        "meta_rev_at_epoch": 12263,
        "meta_bstar": 7.1303366e-05,
        "meta_mean_motion_dot": 1.08e-06,
        "meta_mean_motion_ddot": 0,
        "tle_line1": "1 57490U 23111A   25348.35263451  .00000108  00000+0  71303-4 0  9990",
        "tle_line2": "2 57490  98.7082  56.6200 0000678 105.1481 254.9771 14.19894058122639"
      },
      "geometry": {
        "type": "Point",
        "coordinates": [
          17.48759913744185,
          76.48919364926422
        ]
      }
    },
    {
      "type": "Feature",
      "properties": {
        "norad_id": 58584,
        "name": "ARKTIKA-M 2",
        "group": "weather",
        "lat": 33.949086758177444,
        "lon": -165.46772306310788,
        "alt_km": 19033.765650777175,
        "timestamp": "2025-12-14T20:40:31.410634+00:00",
        "meta_object_name": "ARKTIKA-M 2",
        "meta_object_id": "2023-198A",
        "meta_epoch": "2025-12-08T20:10:13.977120",
        "meta_mean_motion": 2.0060476,
        "meta_eccentricity": 0.68646991,
        "meta_inclination": 63.2247,
        "meta_ra_of_asc_node": 175.3152,
        "meta_arg_of_pericenter": 268.1185,
        "meta_mean_anomaly": 18.8267,
        "meta_ephemeris_type": 0,
        "meta_classification_type": "U",
        "meta_norad_cat_id": 58584,
        "meta_element_set_no": 999,
        "meta_rev_at_epoch": 1450,
        "meta_bstar": 0,
        "meta_mean_motion_dot": 1.66e-06,
        "meta_mean_motion_ddot": 0,
        "tle_line1": "1 58584U 23198A   25342.84043955  .00000166  00000+0  00000+0 0  9998",
        "tle_line2": "2 58584  63.2247 175.3152 6864699 268.1185  18.8267  2.00604760 14506"
      },
      "geometry": {
        "type": "Point",
        "coordinates": [
          -165.46772306310788,
          33.949086758177444
        ]
      }
    },
    {
      "type": "Feature",
      "properties": {
        "norad_id": 58645,
        "name": "TIANMU-1 11",
        "group": "weather",
        "lat": 75.68203126395828,
        "lon": -21.984040105952307,
        "alt_km": 488.56355763758074,
        "timestamp": "2025-12-14T20:40:31.410648+00:00",
        "meta_object_name": "TIANMU-1 11",
        "meta_object_id": "2023-205A",
        "meta_epoch": "2025-12-14T07:44:04.357824",
        "meta_mean_motion": 15.24626016,
        "meta_eccentricity": 0.00077954,
        "meta_inclination": 97.3611,
        "meta_ra_of_asc_node": 7.9179,
        "meta_arg_of_pericenter": 303.8873,
        "meta_mean_anomaly": 56.1622,
        "meta_ephemeris_type": 0,
        "meta_classification_type": "U",
        "meta_norad_cat_id": 58645,
        "meta_element_set_no": 999,
        "meta_rev_at_epoch": 10933,
        "meta_bstar": 0.00028785324,
        "meta_mean_motion_dot": 7.038e-05,
        "meta_mean_motion_ddot": 0,
        "tle_line1": "1 58645U 23205A   25348.32227266  .00007038  00000+0  28785-3 0  9992",
        "tle_line2": "2 58645  97.3611   7.9179 0007795 303.8873  56.1622 15.24626016109331"
      },
      "geometry": {
        "type": "Point",
        "coordinates": [
          -21.984040105952307,
          75.68203126395828
        ]
      }
    },
    {
      "type": "Feature",
      "properties": {
        "norad_id": 58646,
        "name": "TIANMU-1 12",
        "group": "weather",
        "lat": -69.73630939396298,
        "lon": 28.746098062698767,
        "alt_km": 495.5641970889019,
        "timestamp": "2025-12-14T20:40:31.410659+00:00",
        "meta_object_name": "TIANMU-1 12",
        "meta_object_id": "2023-205B",
        "meta_epoch": "2025-12-14T08:23:03.115968",
        "meta_mean_motion": 15.24509282,
        "meta_eccentricity": 0.00058234,
        "meta_inclination": 97.3598,
        "meta_ra_of_asc_node": 7.7495,
        "meta_arg_of_pericenter": 284.0529,
        "meta_mean_anomaly": 76.0061,
        "meta_ephemeris_type": 0,
        "meta_classification_type": "U",
        "meta_norad_cat_id": 58646,
        "meta_element_set_no": 999,
        "meta_rev_at_epoch": 10932,
        "meta_bstar": 0.00031090947,
        "meta_mean_motion_dot": 7.579e-05,
        "meta_mean_motion_ddot": 0,
        "tle_line1": "1 58646U 23205B   25348.34934162  .00007579  00000+0  31091-3 0  9999",
        "tle_line2": "2 58646  97.3598   7.7495 0005823 284.0529  76.0061 15.24509282109325"
      },
      "geometry": {
        "type": "Point",
        "coordinates": [
          28.746098062698767,
          -69.73630939396298
        ]
      }
    }
  ]
}